UMBRA-07                
1 58297U 23174AT  26068.71829358  .00012685  00000+0  84614-3 0  9990
2 58297  97.3902 128.3323 0004131  75.5473 284.6213 15.07174057128425
STARLINK-34920          
1 65447U 25194P   26068.57218218 -.00004754  00000+0 -32566-3 0  9999
2 65447  97.6029 284.3342 0001038  40.4245 319.7058 15.05628187 29634
