[{"OBJECT_NAME":"UMBRA-07","OBJECT_ID":"2023-174AT","EPOCH":"2026-03-09T17:14:20.565312","MEAN_MOTION":15.07174057,"ECCENTRICITY":0.00041314,"INCLINATION":97.3902,"RA_OF_ASC_NODE":128.3323,"ARG_OF_PERICENTER":75.5473,"MEAN_ANOMALY":284.6213,"EPHEMERIS_TYPE":0,"CLASSIFICATION_TYPE":"U","NORAD_CAT_ID":58297,"ELEMENT_SET_NO":999,"REV_AT_EPOCH":12842,"BSTAR":0.0008461425,"MEAN_MOTION_DOT":0.00012685,"MEAN_MOTION_DDOT":0},{"OBJECT_NAME":"STARLINK-34920","OBJECT_ID":"2025-194P","EPOCH":"2026-03-09T13:43:56.540352","MEAN_MOTION":15.05628187,"ECCENTRICITY":0.0001038,"INCLINATION":97.6029,"RA_OF_ASC_NODE":284.3342,"ARG_OF_PERICENTER":40.4245,"MEAN_ANOMALY":319.7058,"EPHEMERIS_TYPE":0,"CLASSIFICATION_TYPE":"U","NORAD_CAT_ID":65447,"ELEMENT_SET_NO":999,"REV_AT_EPOCH":2963,"BSTAR":-0.00032566,"MEAN_MOTION_DOT":-4.754e-5,"MEAN_MOTION_DDOT":0}]
